{
  "links" : {
    "next" : "https://api.nasa.gov/neo/rest/v1/feed?start_date=2001-01-09&end_date=2001-01-09&detailed=true&api_key=t0TVs3DtDT2H8Oy2Zy8m2eVrNsAVKAexjcZXUckd",
    "prev" : "https://api.nasa.gov/neo/rest/v1/feed?start_date=2001-01-07&end_date=2001-01-07&detailed=true&api_key=t0TVs3DtDT2H8Oy2Zy8m2eVrNsAVKAexjcZXUckd",
    "self" : "https://api.nasa.gov/neo/rest/v1/feed?start_date=2001-01-08&end_date=2001-01-08&detailed=true&api_key=t0TVs3DtDT2H8Oy2Zy8m2eVrNsAVKAexjcZXUckd"
  },
  "element_count" : 3,
  "near_earth_objects" : {
    "2001-01-08" : [ {
      "links" : {
        "self" : "https://api.nasa.gov/neo/rest/v1/neo/3164418?api_key=t0TVs3DtDT2H8Oy2Zy8m2eVrNsAVKAexjcZXUckd"
      },
      "neo_reference_id" : "3164418",
      "name" : "(2003 UW29)",
      "nasa_jpl_url" : "http://ssd.jpl.nasa.gov/sbdb.cgi?sstr=3164418",
      "absolute_magnitude_h" : 20.7,
      "estimated_diameter" : {
        "kilometers" : {
          "estimated_diameter_min" : 0.1925550782,
          "estimated_diameter_max" : 0.4305662442
        },
        "meters" : {
          "estimated_diameter_min" : 192.5550781879,
          "estimated_diameter_max" : 430.566244241
        },
        "miles" : {
          "estimated_diameter_min" : 0.1196481415,
          "estimated_diameter_max" : 0.2675413778
        },
        "feet" : {
          "estimated_diameter_min" : 631.7424027221,
          "estimated_diameter_max" : 1412.6189567557
        }
      },
      "is_potentially_hazardous_asteroid" : true,
      "close_approach_data" : [ {
        "close_approach_date" : "2001-01-08",
        "epoch_date_close_approach" : 978940800000,
        "relative_velocity" : {
          "kilometers_per_second" : "32.1942141852",
          "kilometers_per_hour" : "115899.1710668258",
          "miles_per_hour" : "72015.2377109396"
        },
        "miss_distance" : {
          "astronomical" : "0.1009439795",
          "lunar" : "39.2672080994",
          "kilometers" : "15101005",
          "miles" : "9383329"
        },
        "orbiting_body" : "Earth"
      } ],
      "orbital_data" : {
        "orbit_id" : "19",
        "orbit_determination_date" : "2017-04-06 09:13:34",
        "orbit_uncertainty" : "1",
        "minimum_orbit_intersection" : ".0179694",
        "jupiter_tisserand_invariant" : "4.964",
        "epoch_osculation" : "2458000.5",
        "eccentricity" : ".8384836435486978",
        "semi_major_axis" : "1.169617575008501",
        "inclination" : "3.760353715304387",
        "ascending_node_longitude" : "196.586250024811",
        "orbital_period" : "462.0237014748387",
        "perihelion_distance" : ".1889123691567809",
        "perihelion_argument" : "55.14663617128018",
        "aphelion_distance" : "2.150322780860222",
        "perihelion_time" : "2457961.966534284705",
        "mean_anomaly" : "30.02453686515431",
        "mean_motion" : ".7791808057699942",
        "equinox" : "J2000"
      }
    }, {
      "links" : {
        "self" : "https://api.nasa.gov/neo/rest/v1/neo/3623582?api_key=t0TVs3DtDT2H8Oy2Zy8m2eVrNsAVKAexjcZXUckd"
      },
      "neo_reference_id" : "3623582",
      "name" : "(2013 AU27)",
      "nasa_jpl_url" : "http://ssd.jpl.nasa.gov/sbdb.cgi?sstr=3623582",
      "absolute_magnitude_h" : 18.9,
      "estimated_diameter" : {
        "kilometers" : {
          "estimated_diameter_min" : 0.4411182,
          "estimated_diameter_max" : 0.9863702813
        },
        "meters" : {
          "estimated_diameter_min" : 441.1181999969,
          "estimated_diameter_max" : 986.3702813054
        },
        "miles" : {
          "estimated_diameter_min" : 0.2740980571,
          "estimated_diameter_max" : 0.6129018881
        },
        "feet" : {
          "estimated_diameter_min" : 1447.2382352778,
          "estimated_diameter_max" : 3236.1230737181
        }
      },
      "is_potentially_hazardous_asteroid" : false,
      "close_approach_data" : [ {
        "close_approach_date" : "2001-01-08",
        "epoch_date_close_approach" : 978940800000,
        "relative_velocity" : {
          "kilometers_per_second" : "19.4089305632",
          "kilometers_per_hour" : "69872.1500274376",
          "miles_per_hour" : "43415.8367767709"
        },
        "miss_distance" : {
          "astronomical" : "0.390643372",
          "lunar" : "151.9602661133",
          "kilometers" : "58439416",
          "miles" : "36312568"
        },
        "orbiting_body" : "Earth"
      } ],
      "orbital_data" : {
        "orbit_id" : "36",
        "orbit_determination_date" : "2017-07-01 06:47:32",
        "orbit_uncertainty" : "1",
        "minimum_orbit_intersection" : ".104826",
        "jupiter_tisserand_invariant" : "4.480",
        "epoch_osculation" : "2458000.5",
        "eccentricity" : ".2458438873332561",
        "semi_major_axis" : "1.436782683443137",
        "inclination" : "32.54619126978001",
        "ascending_node_longitude" : "297.0351846845994",
        "orbital_period" : "629.0498375348236",
        "perihelion_distance" : "1.083558443292369",
        "perihelion_argument" : "169.1042378084952",
        "aphelion_distance" : "1.790006923593904",
        "perihelion_time" : "2458184.436053237399",
        "mean_anomaly" : "254.7349236668425",
        "mean_motion" : ".5722916985573034",
        "equinox" : "J2000"
      }
    }, {
      "links" : {
        "self" : "https://api.nasa.gov/neo/rest/v1/neo/3781344?api_key=t0TVs3DtDT2H8Oy2Zy8m2eVrNsAVKAexjcZXUckd"
      },
      "neo_reference_id" : "3781344",
      "name" : "(2017 RV)",
      "nasa_jpl_url" : "http://ssd.jpl.nasa.gov/sbdb.cgi?sstr=3781344",
      "absolute_magnitude_h" : 21.959,
      "estimated_diameter" : {
        "kilometers" : {
          "estimated_diameter_min" : 0.1078338166,
          "estimated_diameter_max" : 0.2411237442
        },
        "meters" : {
          "estimated_diameter_min" : 107.8338165972,
          "estimated_diameter_max" : 241.1237441845
        },
        "miles" : {
          "estimated_diameter_min" : 0.0670048065,
          "estimated_diameter_max" : 0.149827302
        },
        "feet" : {
          "estimated_diameter_min" : 353.7854988447,
          "estimated_diameter_max" : 791.0884248704
        }
      },
      "is_potentially_hazardous_asteroid" : true,
      "close_approach_data" : [ {
        "close_approach_date" : "2001-01-08",
        "epoch_date_close_approach" : 978940800000,
        "relative_velocity" : {
          "kilometers_per_second" : "13.275920075",
          "kilometers_per_hour" : "47793.3122699478",
          "miles_per_hour" : "29696.9056157351"
        },
        "miss_distance" : {
          "astronomical" : "0.2274813763",
          "lunar" : "88.4902572632",
          "kilometers" : "34030732",
          "miles" : "21145716"
        },
        "orbiting_body" : "Earth"
      } ],
      "orbital_data" : {
        "orbit_id" : "5",
        "orbit_determination_date" : "2017-09-23 06:50:51",
        "orbit_uncertainty" : "7",
        "minimum_orbit_intersection" : ".00468478",
        "jupiter_tisserand_invariant" : "5.014",
        "epoch_osculation" : "2458000.5",
        "eccentricity" : ".6146599190311121",
        "semi_major_axis" : "1.22432360584616",
        "inclination" : "3.01360811259089",
        "ascending_node_longitude" : "329.2877199279595",
        "orbital_period" : "494.8148917419492",
        "perihelion_distance" : ".4717809574088801",
        "perihelion_argument" : "241.1980611030499",
        "aphelion_distance" : "1.97686625428344",
        "perihelion_time" : "2457915.673108928881",
        "mean_anomaly" : "61.71536325048304",
        "mean_motion" : ".7275447970707872",
        "equinox" : "J2000"
      }
    } ]
  }
}